ONEWEB-0128             
1 47274U 20100S   24286.54156900 -.00000277  00000+0 -80579-3 0  9998
2 47274  87.8848 112.6993 0001958  90.2589 269.8764 13.12441020184380
ONEWEB-0129             
1 47275U 20100T   24286.52048238  .00000384  00000+0  10325-2 0  9999
2 47275  87.8841 112.6632 0002434  45.3525 314.7802 13.12444733184315
ONEWEB-0130             
1 47276U 20100U   24286.54806001 -.00000360  00000+0 -10364-2 0  9991
2 47276  87.8843 112.6637 0001785  84.2338 275.8994 13.12440600184289
ONEWEB-0131             
1 47277U 20100V   24286.54483515 -.00000298  00000+0 -86466-3 0  9990
2 47277  87.8846 112.6825 0001784  88.0037 272.1296 13.12440693184321
ONEWEB-0132             
1 47278U 20100W   24286.49777523  .00000207  00000+0  54052-3 0  9994
2 47278  87.8841 112.6938 0001642  94.9920 265.1396 13.12446144184210
ONEWEB-0133             
1 47279U 20100X   24286.51400179  .00000538  00000+0  14591-2 0  9998
2 47279  87.8838 112.6821 0001772  91.0530 269.0801 13.12441709184370
ONEWEB-0134             
1 47280U 20100Y   24286.48317584 -.00000252  00000+0 -73502-3 0  9996
2 47280  87.8836 112.6753 0001944  83.8753 276.2597 13.12443450184345
ONEWEB-0135             
1 47281U 20100Z   24286.53022844  .00000207  00000+0  53980-3 0  9991
2 47281  87.8841 112.6883 0002199  88.1923 271.9457 13.12443438184372
